OBJECT_NAME,OBJECT_ID,EPOCH,MEAN_MOTION,ECCENTRICITY,INCLINATION,RA_OF_ASC_NODE,ARG_OF_PERICENTER,MEAN_ANOMALY,EPHEMERIS_TYPE,CLASSIFICATION_TYPE,NORAD_CAT_ID,ELEMENT_SET_NO,REV_AT_EPOCH,BSTAR,MEAN_MOTION_DOT,MEAN_MOTION_DDOT
ONEWEB-0236,2021-045AG,2026-06-30T22:36:47.448576,13.15548892,.0002152,87.8993,256.4661,98.5868,261.5506,0,U,48797,999,24606,-.90496455E-4,-.21E-6,0
ONEWEB-0248,2021-045AH,2026-06-30T22:55:02.685216,13.15547852,.00021182,87.9004,256.4487,112.6507,247.4847,0,U,48798,999,24622,.1773161E-3,.8E-6,0
ONEWEB-0225,2021-045AJ,2026-06-30T05:11:45.385728,13.15549621,.0001798,87.9003,256.6030,116.0102,244.1213,0,U,48799,999,24613,.13801615E-3,.65E-6,0
ONEWEB-0215,2021-045AK,2026-06-30T22:43:37.998912,13.15547899,.00019667,87.9009,256.4410,119.7452,240.3874,0,U,48800,999,24610,.14938827E-3,.69E-6,0
ONEWEB-0216,2021-045AL,2026-06-30T22:57:19.300032,13.15548663,.00019863,87.9005,256.4535,98.4366,261.6990,0,U,48801,999,24611,-.79451295E-4,-.17E-6,0
ONEWEB-0239,2021-045AM,2026-06-30T15:46:04.459584,13.15548494,.00022122,87.8995,256.5181,121.6232,238.5114,0,U,48802,999,24611,.15387626E-3,.71E-6,0
ONEWEB-0249,2021-060A,2026-06-30T13:55:41.169504,13.16596233,.00021177,87.9089,226.1182,98.8293,261.3078,0,U,48967,999,24137,.24202329E-3,.105E-5,0
ONEWEB-0250,2021-060B,2026-06-30T03:17:21.317856,13.25835045,.00030921,87.9088,223.9205,101.4532,258.6952,0,U,48968,999,24193,.88900039E-4,.52E-6,0
ONEWEB-0252,2021-060D,2026-06-30T03:43:33.409920,13.16594784,.00018296,87.9088,226.1950,93.5840,266.5501,0,U,48970,999,24136,.30260225E-4,.24E-6,0
ONEWEB-0253,2021-060E,2026-06-30T12:34:46.693920,13.16594634,.00021558,87.9088,226.1271,98.1749,261.9626,0,U,48971,999,24134,-.63854466E-4,-.12E-6,0
ONEWEB-0254,2021-060F,2026-06-30T12:48:26.824320,13.16594924,.00021078,87.9090,226.1232,104.7437,255.3928,0,U,48972,999,24134,-.35107517E-3,-.121E-5,0
ONEWEB-0255,2021-060G,2026-06-30T13:43:09.850656,13.16595044,.0002017,87.9088,226.1218,101.6802,258.4555,0,U,48973,999,24142,.22183442E-4,.21E-6,0
ONEWEB-0256,2021-060H,2026-06-30T12:31:21.260640,13.16594543,.0002013,87.9082,226.1350,92.4215,267.7147,0,U,48974,999,24138,.18737779E-4,.2E-6,0
ONEWEB-0257,2021-060J,2026-06-29T15:24:51.175008,13.16595218,.00019281,87.9087,226.2977,98.2864,261.8486,0,U,48975,999,24122,.94116573E-4,.49E-6,0
ONEWEB-0258,2021-060K,2026-06-30T02:23:45.122784,13.16594505,.0002094,87.9088,226.2189,96.9735,263.1634,0,U,48976,999,24129,.91716161E-4,.48E-6,0
ONEWEB-0259,2021-060L,2026-06-30T04:04:03.857376,13.16595460,.00021665,87.9085,226.2041,100.2711,259.8664,0,U,48977,999,24133,.16313168E-3,.75E-6,0
ONEWEB-0260,2021-060M,2026-06-30T03:51:31.462848,13.16594882,.00017626,87.9080,226.2069,87.6254,272.5079,0,U,48978,999,24131,-.13035851E-4,.8E-7,0
ONEWEB-0261,2021-060N,2026-06-30T14:04:49.482048,13.16593374,.00018014,87.9086,226.1222,102.1715,257.9618,0,U,48979,999,24142,.12609578E-3,.61E-6,0
ONEWEB-0262,2021-060P,2026-06-30T13:36:19.321056,13.16594548,.00022199,87.9086,226.1128,101.9036,258.2344,0,U,48980,999,24138,-.17018453E-3,-.52E-6,0
ONEWEB-0263,2021-060Q,2026-06-30T12:32:28.796928,13.16595461,.00019351,87.9090,226.1333,105.0330,255.1015,0,U,48981,999,24134,-.94407558E-4,-.23E-6,0
ONEWEB-0264,2021-060R,2026-06-30T04:18:52.764768,13.16595195,.0001801,87.9087,226.2044,96.4699,263.6637,0,U,48982,999,24130,.15308517E-3,.71E-6,0
ONEWEB-0266,2021-060T,2026-06-30T13:56:51.016128,13.16595015,.00021227,87.9088,226.1151,94.6673,265.4700,0,U,48984,999,24134,.21176219E-3,.94E-6,0
ONEWEB-0267,2021-060U,2026-06-30T03:16:11.294112,13.16595494,.00019053,87.9091,226.2006,101.5169,258.6176,0,U,48985,999,24129,.1081406E-3,.54E-6,0
ONEWEB-0268,2021-060V,2026-06-30T11:37:45.721344,13.16592520,.00019641,87.9087,226.1408,92.5548,267.5808,0,U,48986,999,24160,.46972243E-4,.31E-6,0
ONEWEB-0269,2021-060W,2026-06-30T03:52:39.758592,13.16595817,.00020681,87.9078,226.2063,89.9947,270.1421,0,U,48987,999,24133,.3251146E-5,.14E-6,0
ONEWEB-0270,2021-060X,2026-06-30T11:35:29.338944,13.16595591,.00020745,87.9087,226.1430,106.3624,253.7735,0,U,48988,999,24141,.58407979E-4,.35E-6,0
ONEWEB-0271,2021-060Y,2026-06-30T03:59:30.505920,13.16595197,.00019381,87.9085,226.1954,102.6589,257.4759,0,U,48989,999,24137,.66044376E-4,.38E-6,0
ONEWEB-0272,2021-060Z,2026-06-30T13:38:37.303584,13.16593405,.00017409,87.9080,226.1268,94.4949,265.6381,0,U,48990,999,24137,.39329179E-3,.163E-5,0
ONEWEB-0273,2021-060AA,2026-06-30T14:10:31.105920,13.16595656,.00020192,87.9090,226.1225,100.2657,259.8702,0,U,48991,999,24135,.26664944E-4,.23E-6,0
ONEWEB-0274,2021-060AB,2026-06-30T12:57:33.899616,13.16594834,.00017889,87.9078,226.1338,90.9025,269.2311,0,U,48992,999,24138,-.40812183E-4,-.3E-7,0
